[
  {
    "name": "ONEWEB-0211",
    "noradId": "48767",
    "line1": "1 48767U 21045A   26195.71013979  .00000043  00000+0  80225-4 0  9991",
    "line2": "2 48767  87.8990 253.5926 0002663 106.3852 253.7572 13.16197991248067"
  },
  {
    "name": "ONEWEB-0223",
    "noradId": "48768",
    "line1": "1 48768U 21045B   26195.64996631 -.00000164  00000+0 -47094-3 0  9991",
    "line2": "2 48768  87.8993 253.7206 0002318 107.0577 253.0808 13.15547966248013"
  },
  {
    "name": "ONEWEB-0230",
    "noradId": "48769",
    "line1": "1 48769U 21045C   26195.69750509  .00000139  00000+0  33507-3 0  9993",
    "line2": "2 48769  87.8986 253.7220 0001923  97.4659 262.6690 13.15548019248280"
  },
  {
    "name": "ONEWEB-0237",
    "noradId": "48770",
    "line1": "1 48770U 21045D   26195.68640936  .00000161  00000+0  39240-3 0  9991",
    "line2": "2 48770  87.8980 253.7264 0002395  97.5713 262.5690 13.15548093248001"
  },
  {
    "name": "ONEWEB-0235",
    "noradId": "48771",
    "line1": "1 48771U 21045E   26195.66104176 -.00000041  00000+0 -14386-3 0  9994",
    "line2": "2 48771  87.8993 253.7196 0002246 108.9465 251.1909 13.15550020247993"
  },
  {
    "name": "ONEWEB-0242",
    "noradId": "48772",
    "line1": "1 48772U 21045F   26195.65471998 -.00000170  00000+0 -48484-3 0  9992",
    "line2": "2 48772  87.8996 253.7179 0001957 102.7259 257.4090 13.15548603248039"
  },
  {
    "name": "ONEWEB-0241",
    "noradId": "48773",
    "line1": "1 48773U 21045G   26195.71809892 -.00000125  00000+0 -36597-3 0  9990",
    "line2": "2 48773  87.8986 253.7204 0002386 105.3687 254.7707 13.15537921247955"
  },
  {
    "name": "ONEWEB-0243",
    "noradId": "48774",
    "line1": "1 48774U 21045H   26195.67372299  .00000073  00000+0  16014-3 0  9994",
    "line2": "2 48774  87.8981 253.7420 0001850 112.7368 247.3957 13.15550323247972"
  },
  {
    "name": "ONEWEB-0222",
    "noradId": "48775",
    "line1": "1 48775U 21045J   26195.65708992 -.00000080  00000+0 -24675-3 0  9998",
    "line2": "2 48775  87.8992 253.7146 0002255 102.8575 257.2807 13.15546996248011"
  },
  {
    "name": "ONEWEB-0244",
    "noradId": "48776",
    "line1": "1 48776U 21045K   26195.68324404  .00000126  00000+0  30050-3 0  9997",
    "line2": "2 48776  87.8996 253.7061 0002070 102.2017 257.9346 13.15548018248586"
  },
  {
    "name": "ONEWEB-0247",
    "noradId": "48777",
    "line1": "1 48777U 21045L   26195.68005854  .00001278  00000+0  33600-2 0  9995",
    "line2": "2 48777  87.8985 253.7347 0002110 119.5205 240.6136 13.15558456248029"
  },
  {
    "name": "ONEWEB-0245",
    "noradId": "48778",
    "line1": "1 48778U 21045M   26195.67530823  .00000131  00000+0  31509-3 0  9998",
    "line2": "2 48778  87.8991 253.7180 0002261 101.3543 258.7842 13.15548601247993"
  },
  {
    "name": "ONEWEB-0229",
    "noradId": "48779",
    "line1": "1 48779U 21045N   26195.67056481  .00000106  00000+0  24635-3 0  9996",
    "line2": "2 48779  87.8992 253.7164 0001986 101.4872 258.6481 13.15547257248025"
  },
  {
    "name": "ONEWEB-0228",
    "noradId": "48780",
    "line1": "1 48780U 21045P   26195.70397262  .00000120  00000+0  28365-3 0  9997",
    "line2": "2 48780  87.9003 253.7031 0002086 100.4348 259.7017 13.15549167247942"
  },
  {
    "name": "ONEWEB-0232",
    "noradId": "48781",
    "line1": "1 48781U 21045Q   26195.67849273 -.00000086  00000+0 -26264-3 0  9997",
    "line2": "2 48781  87.8992 253.7099 0002208  97.2678 262.8704 13.15547793248265"
  },
  {
    "name": "ONEWEB-0231",
    "noradId": "48782",
    "line1": "1 48782U 21045R   26195.65630300 -.00000125  00000+0 -36579-3 0  9999",
    "line2": "2 48782  87.8989 253.7251 0002218 103.8332 256.3046 13.15547616247950"
  },
  {
    "name": "ONEWEB-0234",
    "noradId": "48783",
    "line1": "1 48783U 21045S   26195.69419703  .00000172  00000+0  42156-3 0  9994",
    "line2": "2 48783  87.8994 253.6998 0002753  87.5315 272.6130 13.15547998248091"
  },
  {
    "name": "ONEWEB-0238",
    "noradId": "48784",
    "line1": "1 48784U 21045T   26195.69445652  .00000079  00000+0  17592-3 0  9999",
    "line2": "2 48784  87.9000 253.6959 0002407  91.7167 268.4239 13.15548455247996"
  },
  {
    "name": "ONEWEB-0240",
    "noradId": "48785",
    "line1": "1 48785U 21045U   26195.71571683 -.00000048  00000+0 -16153-3 0  9997",
    "line2": "2 48785  87.8998 253.7012 0002364 103.0142 257.1253 13.15548970248023"
  },
  {
    "name": "ONEWEB-0246",
    "noradId": "48786",
    "line1": "1 48786U 21045V   26195.71017699 -.00000013  00000+0 -67907-4 0  9996",
    "line2": "2 48786  87.8996 253.7060 0002008 101.2565 258.8791 13.15547729247899"
  },
  {
    "name": "ONEWEB-0210",
    "noradId": "48787",
    "line1": "1 48787U 21045W   26195.68482583  .00000140  00000+0  33705-3 0  9998",
    "line2": "2 48787  87.8994 253.7088 0001802 123.2215 236.9089 13.15547652247932"
  },
  {
    "name": "ONEWEB-0214",
    "noradId": "48788",
    "line1": "1 48788U 21045X   26195.69352896  .00000160  00000+0  39042-3 0  9995",
    "line2": "2 48788  87.8996 253.7039 0001716 101.0528 259.0796 13.15546990247908"
  },
  {
    "name": "ONEWEB-0221",
    "noradId": "48789",
    "line1": "1 48789U 21045Y   26195.70067451  .00000146  00000+0  35384-3 0  9997",
    "line2": "2 48789  87.8998 253.7104 0002132 103.9847 256.1520 13.15548154247998"
  },
  {
    "name": "ONEWEB-0213",
    "noradId": "48790",
    "line1": "1 48790U 21045Z   26195.68958088  .00000181  00000+0  44585-3 0  9993",
    "line2": "2 48790  87.8994 253.7161 0002080 107.9579 252.1779 13.15548355248050"
  },
  {
    "name": "ONEWEB-0212",
    "noradId": "48791",
    "line1": "1 48791U 21045AA  26195.66659252 -.00000023  00000+0 -95279-4 0  9997",
    "line2": "2 48791  87.8992 253.7151 0002120  97.9663 262.1708 13.15547144248042"
  },
  {
    "name": "ONEWEB-0227",
    "noradId": "48792",
    "line1": "1 48792U 21045AB  26195.66581059  .00000018  00000+0  13925-4 0  9997",
    "line2": "2 48792  87.8992 253.7153 0002140 100.4379 259.6992 13.15547579247992"
  },
  {
    "name": "ONEWEB-0226",
    "noradId": "48793",
    "line1": "1 48793U 21045AC  26195.65947054 -.00000134  00000+0 -38882-3 0  9997",
    "line2": "2 48793  87.8993 253.7212 0002016 105.1889 254.9465 13.15547924247964"
  },
  {
    "name": "ONEWEB-0224",
    "noradId": "48794",
    "line1": "1 48794U 21045AD  26195.69909044  .00000080  00000+0  17729-3 0  9994",
    "line2": "2 48794  87.8986 253.7455 0002956  98.9664 261.1801 13.15548643247894"
  },
  {
    "name": "ONEWEB-0233",
    "noradId": "48795",
    "line1": "1 48795U 21045AE  26195.70369765  .00000067  00000+0  14514-3 0  9991",
    "line2": "2 48795  87.8984 253.7518 0002250 105.0449 255.0931 13.15550811247910"
  },
  {
    "name": "ONEWEB-0190",
    "noradId": "48796",
    "line1": "1 48796U 21045AF  26195.69116465  .00000090  00000+0  20389-3 0  9990",
    "line2": "2 48796  87.8990 253.7183 0002244 116.4697 243.6664 13.15547829247988"
  }
]