OBJECT_NAME,OBJECT_ID,EPOCH,MEAN_MOTION,ECCENTRICITY,INCLINATION,RA_OF_ASC_NODE,ARG_OF_PERICENTER,MEAN_ANOMALY,EPHEMERIS_TYPE,CLASSIFICATION_TYPE,NORAD_CAT_ID,ELEMENT_SET_NO,REV_AT_EPOCH,BSTAR,MEAN_MOTION_DOT,MEAN_MOTION_DDOT
ONEWEB-0211,2021-045A,2026-07-14T17:02:36.077856,13.16197991,.0002663,87.8990,253.5926,106.3852,253.7572,0,U,48767,999,24806,.80225E-4,.43E-6,0
ONEWEB-0223,2021-045B,2026-07-14T15:35:57.089184,13.15547966,.0002318,87.8993,253.7206,107.0577,253.0808,0,U,48768,999,24801,-.47094E-3,-.164E-5,0
ONEWEB-0230,2021-045C,2026-07-14T16:44:24.439776,13.15548019,.0001923,87.8986,253.7220,97.4659,262.6690,0,U,48769,999,24828,.33507E-3,.139E-5,0
ONEWEB-0237,2021-045D,2026-07-14T16:28:25.768704,13.15548093,.0002395,87.8980,253.7264,97.5713,262.5690,0,U,48770,999,24800,.3924E-3,.161E-5,0
ONEWEB-0235,2021-045E,2026-07-14T15:51:54.008064,13.15550020,.0002246,87.8993,253.7196,108.9465,251.1909,0,U,48771,999,24799,-.14386E-3,-.41E-6,0
ONEWEB-0242,2021-045F,2026-07-14T15:42:47.806272,13.15548603,.0001957,87.8996,253.7179,102.7259,257.4090,0,U,48772,999,24803,-.48484E-3,-.17E-5,0
ONEWEB-0241,2021-045G,2026-07-14T17:14:03.746688,13.15537921,.0002386,87.8986,253.7204,105.3687,254.7707,0,U,48773,999,24795,-.36597E-3,-.125E-5,0
ONEWEB-0243,2021-045H,2026-07-14T16:10:09.666336,13.15550323,.000185,87.8981,253.7420,112.7368,247.3957,0,U,48774,999,24797,.16014E-3,.73E-6,0
ONEWEB-0222,2021-045J,2026-07-14T15:46:12.569088,13.15546996,.0002255,87.8992,253.7146,102.8575,257.2807,0,U,48775,999,24801,-.24675E-3,-.8E-6,0
ONEWEB-0244,2021-045K,2026-07-14T16:23:52.285056,13.15548018,.000207,87.8996,253.7061,102.2017,257.9346,0,U,48776,999,24858,.3005E-3,.126E-5,0
ONEWEB-0247,2021-045L,2026-07-14T16:19:17.057856,13.15558456,.000211,87.8985,253.7347,119.5205,240.6136,0,U,48777,999,24802,.336E-2,.1278E-4,0
ONEWEB-0245,2021-045M,2026-07-14T16:12:26.631072,13.15548601,.0002261,87.8991,253.7180,101.3543,258.7842,0,U,48778,999,24799,.31509E-3,.131E-5,0
ONEWEB-0229,2021-045N,2026-07-14T16:05:36.799584,13.15547257,.0001986,87.8992,253.7164,101.4872,258.6481,0,U,48779,999,24802,.24635E-3,.106E-5,0
ONEWEB-0228,2021-045P,2026-07-14T16:53:43.234368,13.15549167,.0002086,87.9003,253.7031,100.4348,259.7017,0,U,48780,999,24794,.28365E-3,.12E-5,0
ONEWEB-0232,2021-045Q,2026-07-14T16:17:01.771872,13.15547793,.0002208,87.8992,253.7099,97.2678,262.8704,0,U,48781,999,24826,-.26264E-3,-.86E-6,0
ONEWEB-0231,2021-045R,2026-07-14T15:45:04.579200,13.15547616,.0002218,87.8989,253.7251,103.8332,256.3046,0,U,48782,999,24795,-.36579E-3,-.125E-5,0
ONEWEB-0234,2021-045S,2026-07-14T16:39:38.623392,13.15547998,.0002753,87.8994,253.6998,87.5315,272.6130,0,U,48783,999,24809,.42156E-3,.172E-5,0
ONEWEB-0238,2021-045T,2026-07-14T16:40:01.043328,13.15548455,.0002407,87.9000,253.6959,91.7167,268.4239,0,U,48784,999,24799,.17592E-3,.79E-6,0
ONEWEB-0240,2021-045U,2026-07-14T17:10:37.934112,13.15548970,.0002364,87.8998,253.7012,103.0142,257.1253,0,U,48785,999,24802,-.16153E-3,-.48E-6,0
ONEWEB-0246,2021-045V,2026-07-14T17:02:39.291936,13.15547729,.0002008,87.8996,253.7060,101.2565,258.8791,0,U,48786,999,24789,-.67907E-4,-.13E-6,0
ONEWEB-0210,2021-045W,2026-07-14T16:26:08.951712,13.15547652,.0001802,87.8994,253.7088,123.2215,236.9089,0,U,48787,999,24793,.33705E-3,.14E-5,0
ONEWEB-0214,2021-045X,2026-07-14T16:38:40.902144,13.15546990,.0001716,87.8996,253.7039,101.0528,259.0796,0,U,48788,999,24790,.39042E-3,.16E-5,0
ONEWEB-0221,2021-045Y,2026-07-14T16:48:58.277664,13.15548154,.0002132,87.8998,253.7104,103.9847,256.1520,0,U,48789,999,24799,.35384E-3,.146E-5,0
ONEWEB-0213,2021-045Z,2026-07-14T16:32:59.788032,13.15548355,.000208,87.8994,253.7161,107.9579,252.1779,0,U,48790,999,24805,.44585E-3,.181E-5,0
ONEWEB-0212,2021-045AA,2026-07-14T15:59:53.593728,13.15547144,.000212,87.8992,253.7151,97.9663,262.1708,0,U,48791,999,24804,-.95279E-4,-.23E-6,0
ONEWEB-0227,2021-045AB,2026-07-14T15:58:46.034976,13.15547579,.000214,87.8992,253.7153,100.4379,259.6992,0,U,48792,999,24799,.13925E-4,.18E-6,0
ONEWEB-0226,2021-045AC,2026-07-14T15:49:38.254656,13.15547924,.0002016,87.8993,253.7212,105.1889,254.9465,0,U,48793,999,24796,-.38882E-3,-.134E-5,0
ONEWEB-0224,2021-045AD,2026-07-14T16:46:41.414016,13.15548643,.0002956,87.8986,253.7455,98.9664,261.1801,0,U,48794,999,24789,.17729E-3,.8E-6,0
ONEWEB-0233,2021-045AE,2026-07-14T16:53:19.476960,13.15550811,.000225,87.8984,253.7518,105.0449,255.0931,0,U,48795,999,24791,.14514E-3,.67E-6,0
ONEWEB-0190,2021-045AF,2026-07-14T16:35:16.625760,13.15547829,.0002244,87.8990,253.7183,116.4697,243.6664,0,U,48796,999,24798,.20389E-3,.9E-6,0
